RANGE-A                 
1 43773U 18099R   26068.70590171  .00005536  00000+0  32166-3 0  9992
2 43773  97.4107 114.1927 0009674 340.4473  19.6386 15.12458640397457
STARLINK-3113           
1 49735U 21115M   26068.50859719 -.00000844  00000+0 -34922-4 0  9995
2 49735  53.2161 159.8171 0001222 105.1860 254.9268 15.08842889235366
